NORAD_CAT_ID,OBJECT_NAME,OBJECT_TYPE,EPOCH,MEAN_MOTION,ECCENTRICITY,INCLINATION,RA_OF_ASC_NODE,ARG_OF_PERICENTER,MEAN_ANOMALY,BSTAR,MEAN_MOTION_DOT,MEAN_MOTION_DDOT,TLE_LINE0,TLE_LINE1,TLE_LINE2,SEMIMAJOR_AXIS,PERIOD,APOGEE,PERIGEE,DECAYED
53749.0,STARLINK-4680,PAYLOAD,2023-06-16 00:03:44,15.08847415,0.0001138,53.2168,63.0809,88.7946,271.3177,6.1276e-05,6.88e-06,0.0,0 STARLINK-4680,1 53749U 22107BB  23167.00260157  .00000688  00000-0  61276-4 0  9998,2 53749  53.2168  63.0809 0001138  88.7946 271.3177 15.08847415 43194,6917.858,95.437,540.51,538.935,0.0
53749.0,STARLINK-4680,PAYLOAD,2023-06-16 12:46:50,15.08837465,0.000116,53.2163,60.7023,84.2519,275.8605,9.8505e-05,1.28e-05,0.0,0 STARLINK-4680,1 53749U 22107BB  23167.53252545  .00001280  00000-0  98505-4 0  9992,2 53749  53.2163  60.7023 0001160  84.2519 275.8605 15.08837465 44058,6917.888,95.438,540.556,538.951,0.0
53749.0,STARLINK-4680,PAYLOAD,2023-06-16 19:08:22,15.08840531,0.000118,53.2164,59.513,85.0605,275.0522,0.00013184,1.811e-05,0.0,0 STARLINK-4680,1 53749U 22107BB  23167.79748242  .00001811  00000-0  13184-3 0  9993,2 53749  53.2164  59.5130 0001180  85.0605 275.0522 15.08840531 44093,6917.879,95.438,540.56,538.927,0.0
53749.0,STARLINK-4680,PAYLOAD,2023-06-17 01:29:54,15.08848674,0.0001109,53.2166,58.3235,88.0445,272.0674,0.00017932,2.568e-05,0.0,0 STARLINK-4680,1 53749U 22107BB  23168.06243512  .00002568  00000-0  17932-3 0  9999,2 53749  53.2166  58.3235 0001109  88.0445 272.0674 15.08848674 43353,6917.854,95.437,540.486,538.952,0.0
53749.0,STARLINK-4680,PAYLOAD,2023-06-17 09:26:51,15.08839217,0.0001803,53.2162,56.8363,76.4221,283.6972,-3.6162e-05,-8.64e-06,0.0,0 STARLINK-4680,1 53749U 22107BB  23168.39365167 -.00000864  00000-0 -36162-4 0  9992,2 53749  53.2162  56.8363 0001803  76.4221 283.6972 15.08839217 43406,6917.883,95.438,540.995,538.5,0.0
53749.0,STARLINK-4680,PAYLOAD,2023-06-17 17:23:48,15.08817048,0.000104,53.2167,55.3496,78.5421,281.5687,-0.00021704,-3.738e-05,0.0,0 STARLINK-4680,1 53749U 22107BB  23168.72487009 -.00003738  00000-0 -21704-3 0  9997,2 53749  53.2167  55.3496 0001040  78.5421 281.5687 15.08817048 43453,6917.951,95.439,540.535,539.096,0.0
53749.0,STARLINK-4680,PAYLOAD,2023-06-18 01:20:44,15.08822535,0.0001232,53.2167,53.8627,82.3905,277.7227,-0.00015694,-2.783e-05,0.0,0 STARLINK-4680,1 53749U 22107BB  23169.05606843 -.00002783  00000-0 -15694-3 0  9993,2 53749  53.2167  53.8627 0001232  82.3905 277.7227 15.08822535 43505,6917.934,95.439,540.651,538.946,0.0
53749.0,STARLINK-4680,PAYLOAD,2023-06-18 09:17:39,15.08830499,0.0001118,53.2169,52.377,83.3339,276.7781,-6.3305e-05,-1.295e-05,0.0,0 STARLINK-4680,1 53749U 22107BB  23169.38726305 -.00001295  00000-0 -63305-4 0  9995,2 53749  53.2169  52.3770 0001118  83.3339 276.7781 15.08830499 43552,6917.909,95.438,540.548,539.001,0.0
53749.0,STARLINK-4680,PAYLOAD,2023-06-18 18:49:57,15.08836867,0.0001101,53.2173,50.5913,84.7955,275.3163,4.6573e-05,4.53e-06,0.0,0 STARLINK-4680,1 53749U 22107BB  23169.78469804  .00000453  00000-0  46573-4 0  9998,2 53749  53.2173  50.5913 0001101  84.7955 275.3163 15.08836867 44394,6917.89,95.438,540.517,538.993,0.0
53749.0,STARLINK-4680,PAYLOAD,2023-06-19 01:11:29,15.08847357,0.0001096,53.2174,49.4012,83.7914,276.3203,5.0206e-05,5.11e-06,0.0,0 STARLINK-4680,1 53749U 22107BB  23170.04965177  .00000511  00000-0  50206-4 0  9996,2 53749  53.2174  49.4012 0001096  83.7914 276.3203 15.08847357 43659,6917.858,95.437,540.481,538.965,0.0
53749.0,STARLINK-4680,PAYLOAD,2023-06-19 09:08:25,15.08849699,0.0001058,53.2174,47.9146,87.9758,272.1355,3.9159e-05,3.36e-06,0.0,0 STARLINK-4680,1 53749U 22107BB  23170.38085019  .00000336  00000-0  39159-4 0  9990,2 53749  53.2174  47.9146 0001058  87.9758 272.1355 15.08849699 44485,6917.851,95.437,540.448,538.984,0.0
53749.0,STARLINK-4680,PAYLOAD,2023-06-20 08:59:12,15.0884974,0.0001037,53.2161,43.4552,79.5364,280.5745,0.00034166,5.155e-05,0.0,0 STARLINK-4680,1 53749U 22107BB  23171.37445401  .00005155  00000-0  34166-3 0  9991,2 53749  53.2161  43.4552 0001037  79.5364 280.5745 15.08849740 43853,6917.851,95.437,540.433,538.998,0.0
53749.0,STARLINK-4680,PAYLOAD,2023-06-20 15:20:45,15.08845731,9.51e-05,53.217,42.2657,101.7126,258.3973,0.00013735,1.899e-05,0.0,0 STARLINK-4680,1 53749U 22107BB  23171.63941499  .00001899  00000-0  13735-3 0  9998,2 53749  53.2170  42.2657 0000951 101.7126 258.3973 15.08845731 43890,6917.863,95.437,540.386,539.07,0.0
53749.0,STARLINK-4680,PAYLOAD,2023-06-20 20:06:54,15.08844294,0.0001058,53.2168,41.3738,96.0077,264.1036,9.8596e-05,1.282e-05,0.0,0 STARLINK-4680,1 53749U 22107BB  23171.83813527  .00001282  00000-0  98596-4 0  9995,2 53749  53.2168  41.3738 0001058  96.0077 264.1036 15.08844294 44706,6917.867,95.437,540.464,539.0,0.0
53749.0,STARLINK-4680,PAYLOAD,2023-06-21 00:53:03,15.08851282,0.0001063,53.2167,40.4798,109.1532,250.9575,0.00011363,1.522e-05,0.0,0 STARLINK-4680,1 53749U 22107BB  23172.03685014  .00001522  00000-0  11363-3 0  9999,2 53749  53.2167  40.4798 0001063 109.1532 250.9575 15.08851282 44738,6917.846,95.437,540.446,538.976,0.0
53749.0,STARLINK-4680,PAYLOAD,2023-06-21 18:22:18,15.08841576,0.0001145,53.2166,37.208,105.0605,255.0514,-2.3824e-05,-6.67e-06,0.0,0 STARLINK-4680,1 53749U 22107BB  23172.76549421 -.00000667  00000-0 -23824-4 0  9997,2 53749  53.2166  37.2080 0001145 105.0605 255.0514 15.08841576 44062,6917.876,95.437,540.533,538.948,0.0
53749.0,STARLINK-4680,PAYLOAD,2023-06-21 19:57:41,15.08843969,0.0001125,53.2168,36.9106,107.1718,252.9397,1.3723e-05,-6.9e-07,0.0,0 STARLINK-4680,1 53749U 22107BB  23172.83173286 -.00000069  00000-0  13723-4 0  9999,2 53749  53.2168  36.9106 0001125 107.1718 252.9397 15.08843969 44855,6917.868,95.437,540.512,538.955,0.0
53749.0,STARLINK-4680,PAYLOAD,2023-06-22 00:43:50,15.08851051,0.0001081,53.2177,36.0185,97.316,262.7955,-1.4898e-05,-5.25e-06,0.0,0 STARLINK-4680,1 53749U 22107BB  23173.03044960 -.00000525  00000-0 -14898-4 0  9990,2 53749  53.2177  36.0185 0001081  97.3160 262.7955 15.08851051 44103,6917.847,95.437,540.459,538.964,0.0
53749.0,STARLINK-4680,PAYLOAD,2023-06-22 18:13:06,15.0883447,0.0001009,53.2173,32.7485,100.0726,260.038,7.6592e-05,9.31e-06,0.0,0 STARLINK-4680,1 53749U 22107BB  23173.75909859  .00000931  00000-0  76592-4 0  9994,2 53749  53.2173  32.7485 0001009 100.0726 260.0380 15.08834470 44216,6917.897,95.438,540.46,539.064,0.0
53749.0,STARLINK-4680,PAYLOAD,2023-06-23 00:34:38,15.08844605,0.0001081,53.2176,31.5593,91.3794,268.7322,6.9142e-05,8.13e-06,0.0,0 STARLINK-4680,1 53749U 22107BB  23174.02405238  .00000813  00000-0  69142-4 0  9999,2 53749  53.2176  31.5593 0001081  91.3794 268.7322 15.08844605 44259,6917.866,95.437,540.479,538.983,0.0
53749.0,STARLINK-4680,PAYLOAD,2023-06-23 18:03:53,15.08838028,0.0001057,53.2176,28.2884,84.2918,275.8195,2.9128e-05,1.76e-06,0.0,0 STARLINK-4680,1 53749U 22107BB  23174.75269918  .00000176  00000-0  29128-4 0  9994,2 53749  53.2176  28.2884 0001057  84.2918 275.8195 15.08838028 44368,6917.886,95.438,540.483,539.02,0.0
53749.0,STARLINK-4680,PAYLOAD,2023-06-24 00:25:24,15.08849621,0.0001013,53.2172,27.0989,87.0142,273.0966,0.00013285,1.828e-05,0.0,0 STARLINK-4680,1 53749U 22107BB  23175.01764947  .00001828  00000-0  13285-3 0  9997,2 53749  53.2172  27.0989 0001013  87.0142 273.0966 15.08849621 44401,6917.851,95.437,540.417,539.015,0.0
53749.0,STARLINK-4680,PAYLOAD,2023-06-24 06:46:58,15.0883984,0.0001049,53.217,25.9098,83.4712,276.6399,2.6726e-05,1.38e-06,0.0,0 STARLINK-4680,1 53749U 22107BB  23175.28261648  .00000138  00000-0  26726-4 0  9994,2 53749  53.2170  25.9098 0001049  83.4712 276.6399 15.08839840 44444,6917.881,95.438,540.472,539.02,0.0
53749.0,STARLINK-4680,PAYLOAD,2023-06-26 00:06:59,15.08846458,0.0001103,53.2176,18.1781,91.491,268.6208,9.5124e-05,1.227e-05,0.0,0 STARLINK-4680,1 53749U 22107BB  23177.00485695  .00001227  00000-0  95124-4 0  9994,2 53749  53.2176  18.1781 0001103  91.4910 268.6208 15.08846458 44705,6917.861,95.437,540.489,538.963,0.0
53749.0,STARLINK-4680,PAYLOAD,2023-06-26 16:00:52,15.08830365,0.000115,53.2179,15.2041,89.1541,270.9583,8.9985e-05,1.144e-05,0.0,0 STARLINK-4680,1 53749U 22107BB  23177.66726946  .00001144  00000-0  89985-4 0  9999,2 53749  53.2179  15.2041 0001150  89.1541 270.9583 15.08830365 44804,6917.91,95.438,540.57,538.979,0.0
53749.0,STARLINK-4680,PAYLOAD,2023-06-26 20:47:00,15.08841481,0.0001119,53.2176,14.3123,90.2675,269.8445,6.456e-05,7.4e-06,0.0,0 STARLINK-4680,1 53749U 22107BB  23177.86598346  .00000740  00000-0  64560-4 0  9995,2 53749  53.2176  14.3123 0001119  90.2675 269.8445 15.08841481 44836,6917.876,95.437,540.515,538.967,0.0
53749.0,STARLINK-4680,PAYLOAD,2023-06-28 06:10:06,15.08845597,0.0001113,53.2173,8.0681,86.3002,273.8118,6.1157e-05,6.86e-06,0.0,0 STARLINK-4680,1 53749U 22107BB  23179.25702120  .00000686  00000-0  61157-4 0  9995,2 53749  53.2173   8.0681 0001113  86.3002 273.8118 15.08845597 45044,6917.863,95.437,540.498,538.958,0.0
53749.0,STARLINK-4680,PAYLOAD,2023-06-28 17:17:48,15.08840372,0.0001159,53.2175,5.9878,86.4378,273.6746,6.7222e-05,7.82e-06,0.0,0 STARLINK-4680,1 53749U 22107BB  23179.72070506  .00000782  00000-0  67222-4 0  9999,2 53749  53.2175   5.9878 0001159  86.4378 273.6746 15.08840372 45116,6917.879,95.438,540.546,538.942,0.0
53749.0,STARLINK-4680,PAYLOAD,2023-06-29 18:43:59,15.08838941,0.0001191,53.2175,1.2293,90.4822,269.6307,1.2335e-05,-9.2e-07,0.0,0 STARLINK-4680,1 53749U 22107BB  23180.78054654 -.00000092  00000-0  12335-4 0  9993,2 53749  53.2175   1.2293 0001191  90.4822 269.6307 15.08838941 45275,6917.884,95.438,540.573,538.925,0.0
53749.0,STARLINK-4680,PAYLOAD,2023-06-30 15:23:59,15.08837743,0.0001191,53.218,357.3635,89.0733,271.0396,3.7735e-05,3.13e-06,0.0,0 STARLINK-4680,1 53749U 22107BB  23181.64166622  .00000313  00000-0  37735-4 0  9994,2 53749  53.2180 357.3635 0001191  89.0733 271.0396 15.08837743 45400,6917.887,95.438,540.576,538.928,0.0
